{"type":"FeatureCollection","features":[{"type":"Feature","properties":{"Organisation":"Akroyd (Boothtown) Library","Address":"Akroyd Park, Bankfield, Boothtown Road, Halifax, HX3 6HG ","Area":"Boothtown","Postcode":"HX3 6HG","Latitude":"53.733591","Longitude":"-1.864733"},"geometry":{"type":"Point","coordinates":[-1.864733,53.733591]}},{"type":"Feature","properties":{"Organisation":"All Saints Church","Address":"Dudwell Lane, Halifax, HX3 0SD","Area":"Skircoat Green","Postcode":"HX3 0SD","Latitude":"53.701021","Longitude":"-1.86134"},"geometry":{"type":"Point","coordinates":[-1.86134,53.701021]}},{"type":"Feature","properties":{"Organisation":"Arch Way Project","Address":"Arden Road, Halifax, HX1 3AG","Area":"Savile Park","Postcode":"HX1 3AG","Latitude":"53.716806","Longitude":"-1.871425"},"geometry":{"type":"Point","coordinates":[-1.871425,53.716806]}},{"type":"Feature","properties":{"Organisation":"Bahai Community of Calderdale","Address":"Outback Community Garden, Lightowler Lane, Halifax, HX1 5NB ","Area":"Park","Postcode":"HX1 5NB","Latitude":"53.724662","Longitude":"-1.877053"},"geometry":{"type":"Point","coordinates":[-1.877053,53.724662]}},{"type":"Feature","properties":{"Organisation":"Basement Recovery Project (The)","Address":"10 Carlton Street, Halifax, HX1 2AL","Area":"Halifax","Postcode":"HX1 2AL","Latitude":"53.720483","Longitude":"-1.863943"},"geometry":{"type":"Point","coordinates":[-1.863943,53.720483]}},{"type":"Feature","properties":{"Organisation":"Beechwood Library","Address":"Beechwood Road, Illingworth, Halifax, HX2 9BU","Area":"Illingworth","Postcode":"HX2 9BU","Latitude":"53.74757","Longitude":"-1.884113"},"geometry":{"type":"Point","coordinates":[-1.884113,53.74757]}},{"type":"Feature","properties":{"Organisation":"Boothtown Wellbeing Centre ","Address":"Simpson Street, Claremount, Halifax, HX3 6PA","Area":"Boothtown","Postcode":"HX3 6PA","Latitude":"53.737108","Longitude":"-1.86648"},"geometry":{"type":"Point","coordinates":[-1.86648,53.737108]}},{"type":"Feature","properties":{"Organisation":"Brighouse Central Methodists Church","Address":"Commercial Street, Brighouse, HD6 1AP","Area":"Brighouse","Postcode":"HD6 1AP","Latitude":"53.7018","Longitude":"-1.781119"},"geometry":{"type":"Point","coordinates":[-1.781119,53.7018]}},{"type":"Feature","properties":{"Organisation":"Brighouse Library","Address":"Halifax Road, Brighouse, HD6 2AF","Area":"Brighouse","Postcode":"HD6 2AF","Latitude":"53.703978","Longitude":"-1.786043"},"geometry":{"type":"Point","coordinates":[-1.786043,53.703978]}},{"type":"Feature","properties":{"Organisation":"Brighouse Pool ","Address":"Woodvale Road, Brighouse, HD6 4AS","Area":"Brighouse","Postcode":"HD6 4AS","Latitude":"53.709533","Longitude":"-1.781046"},"geometry":{"type":"Point","coordinates":[-1.781046,53.709533]}},{"type":"Feature","properties":{"Organisation":"Calder Food Support Hebden Bridge","Address":"Hebden Bridge Medical Centre, Valley Road, Hebden Bridge, HX7 7BZ","Area":"Hebden Bridge","Postcode":"HX7 7BZ","Latitude":"53.744036","Longitude":"-2.010942"},"geometry":{"type":"Point","coordinates":[-2.010942,53.744036]}},{"type":"Feature","properties":{"Organisation":"Calderdale Our Place, Boothtown","Address":"Boothtown Methodist Church, Freda Wade Centre, Beverly Place, Halifax, HX3 6LP","Area":"Boothtown","Postcode":"HX3 6LP","Latitude":"53.734204","Longitude":"-1.86555"},"geometry":{"type":"Point","coordinates":[-1.86555,53.734204]}},{"type":"Feature","properties":{"Organisation":"Central Halifax Library","Address":"Square Road, Halifax, HX1 1QG","Area":"Halifax","Postcode":"HX1 1QG","Latitude":"53.722396","Longitude":"-1.855072"},"geometry":{"type":"Point","coordinates":[-1.855072,53.722396]}},{"type":"Feature","properties":{"Organisation":"Children's Corner Pre-school","Address":"St Hilda's Church, Gibraltar Road, Halifax, HX1 4HE","Area":"Park","Postcode":"HX1 4HE","Latitude":"53.720423","Longitude":"-1.890309"},"geometry":{"type":"Point","coordinates":[-1.890309,53.720423]}},{"type":"Feature","properties":{"Organisation":"Christ Church Hipperholme","Address":"Brighouse Road, Hipperholme, HX3 8AA","Area":"Hipperholme","Postcode":"HX3 8AA","Latitude":"53.725524","Longitude":"-1.810322"},"geometry":{"type":"Point","coordinates":[-1.810322,53.725524]}},{"type":"Feature","properties":{"Organisation":"Clifton Methodist Church","Address":"Towngate, Clifton, Brighouse, HD6 4HX","Area":"Brighouse","Postcode":"HD6 4HX","Latitude":"53.704227","Longitude":"-1.762247"},"geometry":{"type":"Point","coordinates":[-1.762247,53.704227]}},{"type":"Feature","properties":{"Organisation":"Cozy Cafe","Address":"Hebden Bridge Methodist Church, Market Street Hebden Bridge, HX7 6AA","Area":"Hebden Bridge","Postcode":"HX7 6AA","Latitude":"53.741387","Longitude":"-2.016989"},"geometry":{"type":"Point","coordinates":[-2.016989,53.741387]}},{"type":"Feature","properties":{"Organisation":"Cragg Vale Community Hubbub","Address":"St Johns Church, Church Bank, Cragg Vale, HX7 5TF","Area":"Cragg Vale","Postcode":"HX7 5TF","Latitude":"53.705292","Longitude":"-1.999917"},"geometry":{"type":"Point","coordinates":[-1.999917,53.705292]}},{"type":"Feature","properties":{"Organisation":"Disability Support Calderdale","Address":"Suite 38, Windsor Works, Victoria Road, Hebden Bridge, HX7 8LN","Area":"Hebden Bridge","Postcode":"HX7 8LN","Latitude":"53.746025","Longitude":"-2.013867"},"geometry":{"type":"Point","coordinates":[-2.013867,53.746025]}},{"type":"Feature","properties":{"Organisation":"Dodnaze Community Association","Address":"54 Hirst Grove, Hebden Bridge, HX7 8DN","Area":"Hebden Bridge","Postcode":"HX7 8DN","Latitude":"53.742143","Longitude":"-2.004314"},"geometry":{"type":"Point","coordinates":[-2.004314,53.742143]}},{"type":"Feature","properties":{"Organisation":"EdShift","Address":"7 Harrison Road, Halifax, HX1 2AG","Area":"Halifax","Postcode":"HX1 2AG","Latitude":"53.721266","Longitude":"-1.862681"},"geometry":{"type":"Point","coordinates":[-1.862681,53.721266]}},{"type":"Feature","properties":{"Organisation":"Elland Christian Centre","Address":"Newcombe Street, Elland, HX5 0EG","Area":"Elland","Postcode":"HX5 0EG","Latitude":"53.681069","Longitude":"-1.832578"},"geometry":{"type":"Point","coordinates":[-1.832578,53.681069]}},{"type":"Feature","properties":{"Organisation":"Elland Library","Address":"Coronation Street, Elland, HX5 0DF","Area":"Elland","Postcode":"HX5 0DF","Latitude":"53.684876","Longitude":"-1.838106"},"geometry":{"type":"Point","coordinates":[-1.838106,53.684876]}},{"type":"Feature","properties":{"Organisation":"Everybody Arts ","Address":"Shaw Lodge Mills, Shaw Lane, Halifax, HX3 9ET","Area":"Halifax","Postcode":"HX3 9ET","Latitude":"53.71365","Longitude":"-1.854481"},"geometry":{"type":"Point","coordinates":[-1.854481,53.71365]}},{"type":"Feature","properties":{"Organisation":"Focus4Hope","Address":"12 Huddersfield Road, Brighouse, HS6 1JZ","Area":"Brighouse","Postcode":"HD6 1JZ","Latitude":"53.701126","Longitude":"-1.779439"},"geometry":{"type":"Point","coordinates":[-1.779439,53.701126]}},{"type":"Feature","properties":{"Organisation":"Grass Roots Family CIC","Address":"St Peter's Community Centre, St Peter's Avenue, Sowerby, HX6 1HB","Area":"Sowerby   ","Postcode":"HX6 1HB","Latitude":"53.70399","Longitude":"-1.936069"},"geometry":{"type":"Point","coordinates":[-1.936069,53.70399]}},{"type":"Feature","properties":{"Organisation":"Halifax Elim Church","Address":"Hall Street, Halifax, HX1 5AY","Area":"Halifax","Postcode":"HX1 5AY","Latitude":"53.722789","Longitude":"-1.866177"},"geometry":{"type":"Point","coordinates":[-1.866177,53.722789]}},{"type":"Feature","properties":{"Organisation":"Hebden Bridge Community Association","Address":"The Town Hall, St George's Street, Hebden Bridge, HX7 7BY","Area":"Hebden Bridge","Postcode":"HX7 7BY","Latitude":"53.742337","Longitude":"-2.013109"},"geometry":{"type":"Point","coordinates":[-2.013109,53.742337]}},{"type":"Feature","properties":{"Organisation":"Hebden Bridge Library","Address":"Cheetham Street, Hebden Bridge, HX7 8EP","Area":"Hebden Bridge","Postcode":"HX7 8EP","Latitude":"53.741235","Longitude":"-2.012061"},"geometry":{"type":"Point","coordinates":[-2.012061,53.741235]}},{"type":"Feature","properties":{"Organisation":"Himmat Limited","Address":"Raven Street Centre  - Lower Floor, Raven Street, Halifax, HX1 4NB","Area":"Park","Postcode":"HX1 4NB","Latitude":"53.724009","Longitude":"-1.880889"},"geometry":{"type":"Point","coordinates":[-1.880889,53.724009]}},{"type":"Feature","properties":{"Organisation":"Holy Nativity Mixenden (Mixenden and Illingworth PCC)","Address":"Sunny Bank Road, Mixenden, Halifax, HX2 8RX","Area":"Mixenden","Postcode":"HX2 8RX","Latitude":"53.748778","Longitude":"-1.908948"},"geometry":{"type":"Point","coordinates":[-1.908948,53.748778]}},{"type":"Feature","properties":{"Organisation":"Holy Trinity & St Jude's Church","Address":"Free School Lane, Savile Park, Halifax, HX1 2XE","Area":"Savile Park","Postcode":"HX1 2XE","Latitude":"53.712731","Longitude":"-1.868695"},"geometry":{"type":"Point","coordinates":[-1.868695,53.712731]}},{"type":"Feature","properties":{"Organisation":"Hope Baptist Church","Address":"Hope Street, Hebden Bridge, HX7 8AD","Area":"Hebden Bridge","Postcode":"HX7 8AD","Latitude":"53.740126","Longitude":"-2.010182"},"geometry":{"type":"Point","coordinates":[-2.010182,53.740126]}},{"type":"Feature","properties":{"Organisation":"King Cross Library","Address":"151 Haugh Shaw Road, Halifax, HX1 3BG","Area":"King Cross","Postcode":"HX1 3BG","Latitude":"53.714537","Longitude":"-1.882279"},"geometry":{"type":"Point","coordinates":[-1.882279,53.714537]}},{"type":"Feature","properties":{"Organisation":"Mixenden Library","Address":"Mixenden Activity Centre, Clough Lane, Mixenden HX2 8SH","Area":"Mixenden","Postcode":"HX2 8SH","Latitude":"53.753664","Longitude":"-1.909061"},"geometry":{"type":"Point","coordinates":[-1.909061,53.753664]}},{"type":"Feature","properties":{"Organisation":"Northowram Library","Address":"Lydgate Northowram Halifax, HX3 7EJ","Area":"Northowram","Postcode":"HX3 7EJ","Latitude":"53.739902","Longitude":"-1.829979"},"geometry":{"type":"Point","coordinates":[-1.829979,53.739902]}},{"type":"Feature","properties":{"Organisation":"Pellon Baptist Church","Address":"Springhall Lane, Long Lover Lane, Halifax, HX1 4UA","Area":"Pellon","Postcode":"HX1 4UA","Latitude":"53.727762","Longitude":"-1.888974"},"geometry":{"type":"Point","coordinates":[-1.888974,53.727762]}},{"type":"Feature","properties":{"Organisation":"Rastrick Library","Address":"Crowtrees Lane, Rastrick, Brighouse, HD6 3NE","Area":"Rastrick","Postcode":"HD6 3NE","Latitude":"53.68961","Longitude":"-1.793582"},"geometry":{"type":"Point","coordinates":[-1.793582,53.68961]}},{"type":"Feature","properties":{"Organisation":"Roomfield Baptist Church","Address":"Halifax Road, Todmorden, OL14 5BE","Area":"Todmorden","Postcode":"OL14 5BE","Latitude":"53.714516","Longitude":"-2.089873"},"geometry":{"type":"Point","coordinates":[-2.089873,53.714516]}},{"type":"Feature","properties":{"Organisation":"Salvation Army Brighouse","Address":"33 King Street, Brighouse, HD6 1NX","Area":"Brighouse","Postcode":"HD6 1NX","Latitude":"53.702793","Longitude":"-1.778402"},"geometry":{"type":"Point","coordinates":[-1.778402,53.702793]}},{"type":"Feature","properties":{"Organisation":"Sowerby Bridge Library","Address":"Hollins Mill Lane, Sowerby Bridge, HX6 2QG","Area":"Sowerby Bridge","Postcode":"HX6 2QG","Latitude":"53.708943","Longitude":"-1.912702"},"geometry":{"type":"Point","coordinates":[-1.912702,53.708943]}},{"type":"Feature","properties":{"Organisation":"Sowerby Bridge Pool & Fitness Centre","Address":"Station Road, Sowerby Bridge","Area":"Sowerby Bridge","Postcode":"HX6 3AB","Latitude":"53.707126","Longitude":"-1.910781"},"geometry":{"type":"Point","coordinates":[-1.910781,53.707126]}},{"type":"Feature","properties":{"Organisation":"St Andrews Methodist Church","Address":"Huddersfield Road, Halifax, HX3 0AT","Area":"Skircoat Green","Postcode":"HX2 0AT","Latitude":"53.723619","Longitude":"-1.89559"},"geometry":{"type":"Point","coordinates":[-1.89559,53.723619]}},{"type":"Feature","properties":{"Organisation":"St Augustines Centre","Address":"Hanson Lane, Halifax, HX1 5PG","Area":"Park ","Postcode":"HX1 5PG","Latitude":"53.72439","Longitude":"-1.877889"},"geometry":{"type":"Point","coordinates":[-1.877889,53.72439]}},{"type":"Feature","properties":{"Organisation":"St George's Community Trust","Address":"St George's House, 2 Lilac Street, Lee Mount HX3 5BT","Area":"Lee Mount","Postcode":"HX3 5BT","Latitude":"53.731955","Longitude":"-1.872423"},"geometry":{"type":"Point","coordinates":[-1.872423,53.731955]}},{"type":"Feature","properties":{"Organisation":"St Marys Church (Over 60s Soup and Social)","Address":"Burnley Road, Todmorden, OL14 7BD","Area":"Todmorden","Postcode":"OL14 7BD","Latitude":"53.714087","Longitude":"-2.097842"},"geometry":{"type":"Point","coordinates":[-2.097842,53.714087]}},{"type":"Feature","properties":{"Organisation":"St Paul's Methodist Church Sowerby Bridge","Address":"Tower Hill, Sowerby Bridge, HX6 2EQ","Area":"Sowerby Bridge","Postcode":"HX6 2EQ","Latitude":"53.709025","Longitude":"-1.910897"},"geometry":{"type":"Point","coordinates":[-1.910897,53.709025]}},{"type":"Feature","properties":{"Organisation":"The Kings Church (Kings Centre - Park Road)","Address":"Park Lane, Halifax, HX1 2TS","Area":"Park","Postcode":"HX1 2TS","Latitude":"53.719825","Longitude":"-1.870431"},"geometry":{"type":"Point","coordinates":[-1.870431,53.719825]}},{"type":"Feature","properties":{"Organisation":"The Space @ Field Lane","Address":"The Space at Field Lane, Burnsall Road, Rastrick, HD6 3JT","Area":"Rastrick","Postcode":"HD6 3JT","Latitude":"53.690093","Longitude":"-1.802998"},"geometry":{"type":"Point","coordinates":[-1.802998,53.690093]}},{"type":"Feature","properties":{"Organisation":"Todmorden Health Centre","Address":"Lower George Street, Todmorden, OL14 5QG","Area":"Todmorden","Postcode":"OL14 5QG","Latitude":"53.713685","Longitude":"-2.095538"},"geometry":{"type":"Point","coordinates":[-2.095538,53.713685]}},{"type":"Feature","properties":{"Organisation":"Todmorden Library","Address":"The Strand, Rochdale Road, Todmorden, OL14 7LB","Area":"Todmorden","Postcode":"OL14 7LB","Latitude":"53.712684","Longitude":"-2.098838"},"geometry":{"type":"Point","coordinates":[-2.098838,53.712684]}},{"type":"Feature","properties":{"Organisation":"Todmorden Sports Centre","Address":"Ewood Lane Todmorden, OL14 7DF","Area":"Todmorden","Postcode":"OL14 7DF","Latitude":"53.719955","Longitude":"-2.109751"},"geometry":{"type":"Point","coordinates":[-2.109751,53.719955]}},{"type":"Feature","properties":{"Organisation":"Unique Ways","Address":"Hanson Lane, Halifax, HX1 5PG","Area":"Park","Postcode":"HX1 5PG","Latitude":"53.72439","Longitude":"-1.877889"},"geometry":{"type":"Point","coordinates":[-1.877889,53.72439]}},{"type":"Feature","properties":{"Organisation":"Vale Baptist Church","Address":"Burnley Road, Todmorden, OL14 7BD","Area":"Todmorden","Postcode":"OL14 8JY","Latitude":"53.732224","Longitude":"-2.135855"},"geometry":{"type":"Point","coordinates":[-2.135855,53.732224]}}]}